[{"OBJECT_NAME":"KX-09","OBJECT_ID":"2019-058B","EPOCH":"2026-03-09T23:04:56.318016","MEAN_MOTION":14.96388453,"ECCENTRICITY":0.00095225,"INCLINATION":97.7825,"RA_OF_ASC_NODE":82.8152,"ARG_OF_PERICENTER":321.3855,"MEAN_ANOMALY":38.6684,"EPHEMERIS_TYPE":0,"CLASSIFICATION_TYPE":"U","NORAD_CAT_ID":44520,"ELEMENT_SET_NO":999,"REV_AT_EPOCH":35519,"BSTAR":0.00022385026,"MEAN_MOTION_DOT":2.479e-5,"MEAN_MOTION_DDOT":0},{"OBJECT_NAME":"STARLINK-36265","OBJECT_ID":"2025-304S","EPOCH":"2026-03-09T16:54:06.355008","MEAN_MOTION":14.98297439,"ECCENTRICITY":0.00044471,"INCLINATION":70.002,"RA_OF_ASC_NODE":174.5517,"ARG_OF_PERICENTER":251.031,"MEAN_ANOMALY":109.0367,"EPHEMERIS_TYPE":0,"CLASSIFICATION_TYPE":"U","NORAD_CAT_ID":67208,"ELEMENT_SET_NO":999,"REV_AT_EPOCH":1388,"BSTAR":-0.0010792203,"MEAN_MOTION_DOT":-0.00012937,"MEAN_MOTION_DDOT":0}]
